[{"OBJECT_NAME":"GEESAT-6 10","OBJECT_ID":"2025-214L","EPOCH":"2026-03-09T22:56:54.596544","MEAN_MOTION":14.83010586,"ECCENTRICITY":0.00119289,"INCLINATION":49.9894,"RA_OF_ASC_NODE":48.3383,"ARG_OF_PERICENTER":214.2283,"MEAN_ANOMALY":145.7887,"EPHEMERIS_TYPE":0,"CLASSIFICATION_TYPE":"U","NORAD_CAT_ID":65722,"ELEMENT_SET_NO":999,"REV_AT_EPOCH":2477,"BSTAR":0.00035859294,"MEAN_MOTION_DOT":2.723e-5,"MEAN_MOTION_DDOT":0},{"OBJECT_NAME":"AETHER-10","OBJECT_ID":"2026-004U","EPOCH":"2026-03-09T23:23:04.191648","MEAN_MOTION":14.88103238,"ECCENTRICITY":0.0006729,"INCLINATION":97.804,"RA_OF_ASC_NODE":69.2149,"ARG_OF_PERICENTER":90.6423,"MEAN_ANOMALY":269.5564,"EPHEMERIS_TYPE":0,"CLASSIFICATION_TYPE":"U","NORAD_CAT_ID":67381,"ELEMENT_SET_NO":999,"REV_AT_EPOCH":853,"BSTAR":0.00015076297,"MEAN_MOTION_DOT":1.333e-5,"MEAN_MOTION_DDOT":0}]
